{"type": "FeatureCollection", "features": [ {"type": "Feature", "properties": {"norad_id": 66526, "name": "STARLINK-35932", "group": "last-30-days", "lat": 29.28840210786528, "lon": 95.6185613049479, "alt_km": 411.30664258904926, "timestamp": "2025-12-11T22:43:46.023351+00:00", "meta": {"OBJECT_NAME": "STARLINK-35932", "OBJECT_ID": "2025-265L", "EPOCH": "2025-12-11T14:00:01.999872", "MEAN_MOTION": 15.50601013, "ECCENTRICITY": 0.00014738, "INCLINATION": 43.0002, "RA_OF_ASC_NODE": 60.7384, "ARG_OF_PERICENTER": 268.6836, "MEAN_ANOMALY": 264.5898, "EPHEMERIS_TYPE": 0, "CLASSIFICATION_TYPE": "U", "NORAD_CAT_ID": 66526, "ELEMENT_SET_NO": 999, "REV_AT_EPOCH": 469, "BSTAR": -0.0022165217, "MEAN_MOTION_DOT": -0.00128366, "MEAN_MOTION_DDOT": 0}, "tle": {"line1": "1 66526U 25265L   25345.58335648 -.00128366  00000+0 -22165-2 0  9991", "line2": "2 66526  43.0002  60.7384 0001473 268.6836 264.5898 15.50601013  4691"}}, "geometry": {"type": "Point", "coordinates": [95.6185613049479, 29.28840210786528]}}, {"type": "Feature", "properties": {"norad_id": 66527, "name": "STARLINK-35935", "group": "last-30-days", "lat": 30.32026719663697, "lon": 97.47862900356436, "alt_km": 411.1148129642297, "timestamp": "2025-12-11T22:43:46.023361+00:00", "meta": {"OBJECT_NAME": "STARLINK-35935", "OBJECT_ID": "2025-265M", "EPOCH": "2025-12-11T14:00:01.999872", "MEAN_MOTION": 15.50617838, "ECCENTRICITY": 0.00012821, "INCLINATION": 43.0003, "RA_OF_ASC_NODE": 60.7337, "ARG_OF_PERICENTER": 266.3721, "MEAN_ANOMALY": 268.8137, "EPHEMERIS_TYPE": 0, "CLASSIFICATION_TYPE": "U", "NORAD_CAT_ID": 66527, "ELEMENT_SET_NO": 999, "REV_AT_EPOCH": 480, "BSTAR": -0.0027587204, "MEAN_MOTION_DOT": -0.00159154, "MEAN_MOTION_DDOT": 0}, "tle": {"line1": "1 66527U 25265M   25345.58335648 -.00159154  00000+0 -27587-2 0  9994", "line2": "2 66527  43.0003  60.7337 0001282 266.3721 268.8137 15.50617838  4805"}}, "geometry": {"type": "Point", "coordinates": [97.47862900356436, 30.32026719663697]}}, {"type": "Feature", "properties": {"norad_id": 66528, "name": "STARLINK-35928", "group": "last-30-days", "lat": 31.32144560117183, "lon": 99.37071046702258, "alt_km": 410.90340541112164, "timestamp": "2025-12-11T22:43:46.023373+00:00", "meta": {"OBJECT_NAME": "STARLINK-35928", "OBJECT_ID": "2025-265N", "EPOCH": "2025-12-11T14:00:01.999872", "MEAN_MOTION": 15.50582499, "ECCENTRICITY": 0.0001714, "INCLINATION": 43.0006, "RA_OF_ASC_NODE": 60.7293, "ARG_OF_PERICENTER": 281.4935, "MEAN_ANOMALY": 255.605, "EPHEMERIS_TYPE": 0, "CLASSIFICATION_TYPE": "U", "NORAD_CAT_ID": 66528, "ELEMENT_SET_NO": 999, "REV_AT_EPOCH": 480, "BSTAR": -0.0014326368, "MEAN_MOTION_DOT": -0.00083509, "MEAN_MOTION_DDOT": 0}, "tle": {"line1": "1 66528U 25265N   25345.58335648 -.00083509  00000+0 -14326-2 0  9992", "line2": "2 66528  43.0006  60.7293 0001714 281.4935 255.6050 15.50582499  4807"}}, "geometry": {"type": "Point", "coordinates": [99.37071046702258, 31.32144560117183]}}, {"type": "Feature", "properties": {"norad_id": 66529, "name": "STARLINK-35933", "group": "last-30-days", "lat": 27.528134570504236, "lon": 92.62495960465101, "alt_km": 424.98893337317986, "timestamp": "2025-12-11T22:43:46.023384+00:00", "meta": {"OBJECT_NAME": "STARLINK-35933", "OBJECT_ID": "2025-265P", "EPOCH": "2025-12-11T14:00:01.999872", "MEAN_MOTION": 15.47494421, "ECCENTRICITY": 9.593e-05, "INCLINATION": 43.0001, "RA_OF_ASC_NODE": 60.7325, "ARG_OF_PERICENTER": 283.1839, "MEAN_ANOMALY": 252.0164, "EPHEMERIS_TYPE": 0, "CLASSIFICATION_TYPE": "U", "NORAD_CAT_ID": 66529, "ELEMENT_SET_NO": 999, "REV_AT_EPOCH": 480, "BSTAR": -0.043922341, "MEAN_MOTION_DOT": -0.02055681, "MEAN_MOTION_DDOT": 0}, "tle": {"line1": "1 66529U 25265P   25345.58335648 -.02055681  00000+0 -43922-1 0  9998", "line2": "2 66529  43.0001  60.7325 0000959 283.1839 252.0164 15.47494421  4801"}}, "geometry": {"type": "Point", "coordinates": [92.62495960465101, 27.528134570504236]}}, {"type": "Feature", "properties": {"norad_id": 66530, "name": "STARLINK-35961", "group": "last-30-days", "lat": 32.59877283171348, "lon": 101.92898675536892, "alt_km": 415.89129332805805, "timestamp": "2025-12-11T22:43:46.023394+00:00", "meta": {"OBJECT_NAME": "STARLINK-35961", "OBJECT_ID": "2025-265Q", "EPOCH": "2025-12-11T14:00:01.999872", "MEAN_MOTION": 15.50403589, "ECCENTRICITY": 0.00013744, "INCLINATION": 43.0003, "RA_OF_ASC_NODE": 60.7189, "ARG_OF_PERICENTER": 284.5277, "MEAN_ANOMALY": 256.3759, "EPHEMERIS_TYPE": 0, "CLASSIFICATION_TYPE": "U", "NORAD_CAT_ID": 66530, "ELEMENT_SET_NO": 999, "REV_AT_EPOCH": 480, "BSTAR": -0.040069684, "MEAN_MOTION_DOT": -0.02077145, "MEAN_MOTION_DDOT": 0}, "tle": {"line1": "1 66530U 25265Q   25345.58335648 -.02077145  00000+0 -40070-1 0  9990", "line2": "2 66530  43.0003  60.7189 0001374 284.5277 256.3759 15.50403589  4802"}}, "geometry": {"type": "Point", "coordinates": [101.92898675536892, 32.59877283171348]}}, {"type": "Feature", "properties": {"norad_id": 66531, "name": "STARLINK-35960", "group": "last-30-days", "lat": 34.16469754650252, "lon": 105.3337965137286, "alt_km": 410.28814087224237, "timestamp": "2025-12-11T22:43:46.023406+00:00", "meta": {"OBJECT_NAME": "STARLINK-35960", "OBJECT_ID": "2025-265R", "EPOCH": "2025-12-11T14:00:01.999872", "MEAN_MOTION": 15.5060209, "ECCENTRICITY": 0.00012527, "INCLINATION": 43.0001, "RA_OF_ASC_NODE": 60.7148, "ARG_OF_PERICENTER": 274.7606, "MEAN_ANOMALY": 268.0746, "EPHEMERIS_TYPE": 0, "CLASSIFICATION_TYPE": "U", "NORAD_CAT_ID": 66531, "ELEMENT_SET_NO": 999, "REV_AT_EPOCH": 480, "BSTAR": -0.0010098823, "MEAN_MOTION_DOT": -0.00059188, "MEAN_MOTION_DDOT": 0}, "tle": {"line1": "1 66531U 25265R   25345.58335648 -.00059188  00000+0 -10099-2 0  9995", "line2": "2 66531  43.0001  60.7148 0001252 274.7606 268.0746 15.50602090  4802"}}, "geometry": {"type": "Point", "coordinates": [105.3337965137286, 34.16469754650252]}}, {"type": "Feature", "properties": {"norad_id": 66532, "name": "STARLINK-35914", "group": "last-30-days", "lat": 35.038295405712695, "lon": 107.38722105037237, "alt_km": 410.5691320909755, "timestamp": "2025-12-11T22:43:46.023416+00:00", "meta": {"OBJECT_NAME": "STARLINK-35914", "OBJECT_ID": "2025-265S", "EPOCH": "2025-12-11T14:00:01.999872", "MEAN_MOTION": 15.50618962, "ECCENTRICITY": 0.00014364, "INCLINATION": 43.0002, "RA_OF_ASC_NODE": 60.7092, "ARG_OF_PERICENTER": 261.7521, "MEAN_ANOMALY": 283.0166, "EPHEMERIS_TYPE": 0, "CLASSIFICATION_TYPE": "U", "NORAD_CAT_ID": 66532, "ELEMENT_SET_NO": 999, "REV_AT_EPOCH": 480, "BSTAR": -0.0027737324, "MEAN_MOTION_DOT": -0.0016001, "MEAN_MOTION_DDOT": 0}, "tle": {"line1": "1 66532U 25265S   25345.58335648 -.00160010  00000+0 -27737-2 0  9990", "line2": "2 66532  43.0002  60.7092 0001436 261.7521 283.0166 15.50618962  4806"}}, "geometry": {"type": "Point", "coordinates": [107.38722105037237, 35.038295405712695]}}, {"type": "Feature", "properties": {"norad_id": 66533, "name": "STARLINK-35707", "group": "last-30-days", "lat": 35.88455318044594, "lon": 109.50605091023988, "alt_km": 410.2246068469967, "timestamp": "2025-12-11T22:43:46.023426+00:00", "meta": {"OBJECT_NAME": "STARLINK-35707", "OBJECT_ID": "2025-265T", "EPOCH": "2025-12-11T14:00:01.999872", "MEAN_MOTION": 15.50629389, "ECCENTRICITY": 0.00014762, "INCLINATION": 43.0002, "RA_OF_ASC_NODE": 60.7041, "ARG_OF_PERICENTER": 279.1803, "MEAN_ANOMALY": 267.4843, "EPHEMERIS_TYPE": 0, "CLASSIFICATION_TYPE": "U", "NORAD_CAT_ID": 66533, "ELEMENT_SET_NO": 999, "REV_AT_EPOCH": 480, "BSTAR": -0.0024200755, "MEAN_MOTION_DOT": -0.00140058, "MEAN_MOTION_DDOT": 0}, "tle": {"line1": "1 66533U 25265T   25345.58335648 -.00140058  00000+0 -24201-2 0  9994", "line2": "2 66533  43.0002  60.7041 0001476 279.1803 267.4843 15.50629389  4804"}}, "geometry": {"type": "Point", "coordinates": [109.50605091023988, 35.88455318044594]}}, {"type": "Feature", "properties": {"norad_id": 66534, "name": "STARLINK-35976", "group": "last-30-days", "lat": 36.68935877772044, "lon": 111.66109275206358, "alt_km": 410.2649058594179, "timestamp": "2025-12-11T22:43:46.023437+00:00", "meta": {"OBJECT_NAME": "STARLINK-35976", "OBJECT_ID": "2025-265U", "EPOCH": "2025-12-11T14:00:01.999872", "MEAN_MOTION": 15.50618781, "ECCENTRICITY": 0.00014275, "INCLINATION": 43.0006, "RA_OF_ASC_NODE": 60.7004, "ARG_OF_PERICENTER": 269.7743, "MEAN_ANOMALY": 278.8316, "EPHEMERIS_TYPE": 0, "CLASSIFICATION_TYPE": "U", "NORAD_CAT_ID": 66534, "ELEMENT_SET_NO": 999, "REV_AT_EPOCH": 480, "BSTAR": -0.0027669214, "MEAN_MOTION_DOT": -0.00159625, "MEAN_MOTION_DDOT": 0}, "tle": {"line1": "1 66534U 25265U   25345.58335648 -.00159625  00000+0 -27669-2 0  9996", "line2": "2 66534  43.0006  60.7004 0001427 269.7743 278.8316 15.50618781  4807"}}, "geometry": {"type": "Point", "coordinates": [111.66109275206358, 36.68935877772044]}}, {"type": "Feature", "properties": {"norad_id": 66535, "name": "STARLINK-35514", "group": "last-30-days", "lat": 37.449971954272975, "lon": 113.84779035123925, "alt_km": 410.0751230787482, "timestamp": "2025-12-11T22:43:46.023449+00:00", "meta": {"OBJECT_NAME": "STARLINK-35514", "OBJECT_ID": "2025-265V", "EPOCH": "2025-12-11T14:00:01.999872", "MEAN_MOTION": 15.50576578, "ECCENTRICITY": 0.00016097, "INCLINATION": 43.0004, "RA_OF_ASC_NODE": 60.6954, "ARG_OF_PERICENTER": 280.552, "MEAN_ANOMALY": 269.9682, "EPHEMERIS_TYPE": 0, "CLASSIFICATION_TYPE": "U", "NORAD_CAT_ID": 66535, "ELEMENT_SET_NO": 999, "REV_AT_EPOCH": 480, "BSTAR": -0.0012542536, "MEAN_MOTION_DOT": -0.00073233, "MEAN_MOTION_DDOT": 0}, "tle": {"line1": "1 66535U 25265V   25345.58335648 -.00073233  00000+0 -12543-2 0  9992", "line2": "2 66535  43.0004  60.6954 0001609 280.5520 269.9682 15.50576578  4809"}}, "geometry": {"type": "Point", "coordinates": [113.84779035123925, 37.449971954272975]}}]}